{"type": "FeatureCollection", "features": [ {"type": "Feature", "properties": {"norad_id": 66918, "name": "HULIANWANG DIGUI-108", "group": "last-30-days", "lat": -41.141315644929875, "lon": -28.675159410248632, "alt_km": 876.8079125660797, "timestamp": "2025-12-15T22:44:27.662697+00:00", "meta": {"OBJECT_NAME": "HULIANWANG DIGUI-108", "OBJECT_ID": "2025-285D", "EPOCH": "2025-12-15T07:57:13.398912", "MEAN_MOTION": 14.05310424, "ECCENTRICITY": 0.00063604, "INCLINATION": 50.004, "RA_OF_ASC_NODE": 106.6678, "ARG_OF_PERICENTER": 289.8888, "MEAN_ANOMALY": 70.1332, "EPHEMERIS_TYPE": 0, "CLASSIFICATION_TYPE": "U", "NORAD_CAT_ID": 66918, "ELEMENT_SET_NO": 999, "REV_AT_EPOCH": 127, "BSTAR": 0.00011526412, "MEAN_MOTION_DOT": 3.6e-07, "MEAN_MOTION_DDOT": 0}, "tle": {"line1": "1 66918U 25285D   25349.33140508  .00000036  00000+0  11526-3 0  9995", "line2": "2 66918  50.0040 106.6678 0006360 289.8888  70.1332 14.05310424  1271"}}, "geometry": {"type": "Point", "coordinates": [-28.675159410248632, -41.141315644929875]}}, {"type": "Feature", "properties": {"norad_id": 66919, "name": "HULIANWANG DIGUI-109", "group": "last-30-days", "lat": -42.57406095903243, "lon": -25.388703346744002, "alt_km": 875.434758737224, "timestamp": "2025-12-15T22:44:27.662708+00:00", "meta": {"OBJECT_NAME": "HULIANWANG DIGUI-109", "OBJECT_ID": "2025-285E", "EPOCH": "2025-12-15T07:56:39.852384", "MEAN_MOTION": 14.05717997, "ECCENTRICITY": 0.00079, "INCLINATION": 50.0065, "RA_OF_ASC_NODE": 106.6694, "ARG_OF_PERICENTER": 300.4069, "MEAN_ANOMALY": 59.6056, "EPHEMERIS_TYPE": 0, "CLASSIFICATION_TYPE": "U", "NORAD_CAT_ID": 66919, "ELEMENT_SET_NO": 999, "REV_AT_EPOCH": 127, "BSTAR": 0.00012190053, "MEAN_MOTION_DOT": 4.8e-07, "MEAN_MOTION_DDOT": 0}, "tle": {"line1": "1 66919U 25285E   25349.33101681  .00000048  00000+0  12190-3 0  9996", "line2": "2 66919  50.0065 106.6694 0007900 300.4069  59.6056 14.05717997  1270"}}, "geometry": {"type": "Point", "coordinates": [-25.388703346744002, -42.57406095903243]}}, {"type": "Feature", "properties": {"norad_id": 66920, "name": "HULIANWANG DIGUI-110", "group": "last-30-days", "lat": -44.35378564018481, "lon": -20.76772717190986, "alt_km": 873.9701667501795, "timestamp": "2025-12-15T22:44:27.662718+00:00", "meta": {"OBJECT_NAME": "HULIANWANG DIGUI-110", "OBJECT_ID": "2025-285F", "EPOCH": "2025-12-15T07:55:28.752960", "MEAN_MOTION": 14.05572078, "ECCENTRICITY": 0.00105653, "INCLINATION": 50.0379, "RA_OF_ASC_NODE": 106.6887, "ARG_OF_PERICENTER": 294.2923, "MEAN_ANOMALY": 65.6878, "EPHEMERIS_TYPE": 0, "CLASSIFICATION_TYPE": "U", "NORAD_CAT_ID": 66920, "ELEMENT_SET_NO": 999, "REV_AT_EPOCH": 127, "BSTAR": 0.00011054338, "MEAN_MOTION_DOT": 2.9e-07, "MEAN_MOTION_DDOT": 0}, "tle": {"line1": "1 66920U 25285F   25349.33019390  .00000029  00000+0  11054-3 0  9990", "line2": "2 66920  50.0379 106.6887 0010565 294.2923  65.6878 14.05572078  1272"}}, "geometry": {"type": "Point", "coordinates": [-20.76772717190986, -44.35378564018481]}}, {"type": "Feature", "properties": {"norad_id": 66921, "name": "HULIANWANG DIGUI-111", "group": "last-30-days", "lat": -45.16613978748852, "lon": -18.270644525927956, "alt_km": 875.0957552888794, "timestamp": "2025-12-15T22:44:27.662730+00:00", "meta": {"OBJECT_NAME": "HULIANWANG DIGUI-111", "OBJECT_ID": "2025-285G", "EPOCH": "2025-12-15T06:12:46.869984", "MEAN_MOTION": 14.05885818, "ECCENTRICITY": 0.00070072, "INCLINATION": 50.0114, "RA_OF_ASC_NODE": 106.9613, "ARG_OF_PERICENTER": 303.4362, "MEAN_ANOMALY": 56.5872, "EPHEMERIS_TYPE": 0, "CLASSIFICATION_TYPE": "U", "NORAD_CAT_ID": 66921, "ELEMENT_SET_NO": 999, "REV_AT_EPOCH": 126, "BSTAR": 0.00011266482, "MEAN_MOTION_DOT": 3.3e-07, "MEAN_MOTION_DDOT": 0}, "tle": {"line1": "1 66921U 25285G   25349.25887581  .00000033  00000+0  11266-3 0  9997", "line2": "2 66921  50.0114 106.9613 0007007 303.4362  56.5872 14.05885818  1268"}}, "geometry": {"type": "Point", "coordinates": [-18.270644525927956, -45.16613978748852]}}, {"type": "Feature", "properties": {"norad_id": 66922, "name": "HULIANWANG DIGUI-112", "group": "last-30-days", "lat": -46.46598528974234, "lon": -13.808094182065679, "alt_km": 875.7698366683453, "timestamp": "2025-12-15T22:44:27.662740+00:00", "meta": {"OBJECT_NAME": "HULIANWANG DIGUI-112", "OBJECT_ID": "2025-285H", "EPOCH": "2025-12-15T09:36:28.476576", "MEAN_MOTION": 14.05775583, "ECCENTRICITY": 0.00071174, "INCLINATION": 50.0106, "RA_OF_ASC_NODE": 106.3732, "ARG_OF_PERICENTER": 310.9943, "MEAN_ANOMALY": 49.0346, "EPHEMERIS_TYPE": 0, "CLASSIFICATION_TYPE": "U", "NORAD_CAT_ID": 66922, "ELEMENT_SET_NO": 999, "REV_AT_EPOCH": 128, "BSTAR": 0.0001185304, "MEAN_MOTION_DOT": 4.2e-07, "MEAN_MOTION_DDOT": 0}, "tle": {"line1": "1 66922U 25285H   25349.40032959  .00000042  00000+0  11853-3 0  9998", "line2": "2 66922  50.0106 106.3732 0007117 310.9943  49.0346 14.05775583  1288"}}, "geometry": {"type": "Point", "coordinates": [-13.808094182065679, -46.46598528974234]}}, {"type": "Feature", "properties": {"norad_id": 66923, "name": "HULIANWANG DIGUI-113", "group": "last-30-days", "lat": -47.339996776657, "lon": -10.239999073295344, "alt_km": 874.9223662830027, "timestamp": "2025-12-15T22:44:27.662750+00:00", "meta": {"OBJECT_NAME": "HULIANWANG DIGUI-113", "OBJECT_ID": "2025-285J", "EPOCH": "2025-12-15T09:35:54.224160", "MEAN_MOTION": 14.0605741, "ECCENTRICITY": 0.00054258, "INCLINATION": 50.0087, "RA_OF_ASC_NODE": 106.3706, "ARG_OF_PERICENTER": 305.0563, "MEAN_ANOMALY": 54.9833, "EPHEMERIS_TYPE": 0, "CLASSIFICATION_TYPE": "U", "NORAD_CAT_ID": 66923, "ELEMENT_SET_NO": 999, "REV_AT_EPOCH": 128, "BSTAR": 0.0001060274, "MEAN_MOTION_DOT": 2.3e-07, "MEAN_MOTION_DDOT": 0}, "tle": {"line1": "1 66923U 25285J   25349.39993315  .00000023  00000+0  10603-3 0  9990", "line2": "2 66923  50.0087 106.3706 0005425 305.0563  54.9833 14.06057410  1280"}}, "geometry": {"type": "Point", "coordinates": [-10.239999073295344, -47.339996776657]}}, {"type": "Feature", "properties": {"norad_id": 66924, "name": "CZ-8A R/B", "group": "last-30-days", "lat": 11.633274576273081, "lon": 112.45057093568258, "alt_km": 806.7695012425384, "timestamp": "2025-12-15T22:44:27.662760+00:00", "meta": {"OBJECT_NAME": "CZ-8A R/B", "OBJECT_ID": "2025-285K", "EPOCH": "2025-12-15T07:34:48.809280", "MEAN_MOTION": 14.30502913, "ECCENTRICITY": 0.01193144, "INCLINATION": 50.007, "RA_OF_ASC_NODE": 105.1887, "ARG_OF_PERICENTER": 115.8206, "MEAN_ANOMALY": 245.5074, "EPHEMERIS_TYPE": 0, "CLASSIFICATION_TYPE": "U", "NORAD_CAT_ID": 66924, "ELEMENT_SET_NO": 999, "REV_AT_EPOCH": 129, "BSTAR": 5.7990449e-05, "MEAN_MOTION_DOT": -3e-08, "MEAN_MOTION_DDOT": 0}, "tle": {"line1": "1 66924U 25285K   25349.31584270 -.00000003  00000+0  57990-4 0  9999", "line2": "2 66924  50.0070 105.1887 0119314 115.8206 245.5074 14.30502913  1290"}}, "geometry": {"type": "Point", "coordinates": [112.45057093568258, 11.633274576273081]}}, {"type": "Feature", "properties": {"norad_id": 66925, "name": "STARLINK-35945", "group": "last-30-days", "lat": 13.961012998915573, "lon": -156.35097855313117, "alt_km": 301.83838481885505, "timestamp": "2025-12-15T22:44:27.662772+00:00", "meta": {"OBJECT_NAME": "STARLINK-35945", "OBJECT_ID": "2025-286A", "EPOCH": "2025-12-15T06:00:04.999968", "MEAN_MOTION": 15.9146479, "ECCENTRICITY": 8.238e-05, "INCLINATION": 53.1573, "RA_OF_ASC_NODE": 37.9393, "ARG_OF_PERICENTER": 83.8207, "MEAN_ANOMALY": 42.308, "EPHEMERIS_TYPE": 0, "CLASSIFICATION_TYPE": "U", "NORAD_CAT_ID": 66925, "ELEMENT_SET_NO": 999, "REV_AT_EPOCH": 239, "BSTAR": -0.0039424754, "MEAN_MOTION_DOT": -0.01300542, "MEAN_MOTION_DDOT": 0.00049064985}, "tle": {"line1": "1 66925U 25286A   25349.25005787 -.01300542  49065-3 -39425-2 0  9997", "line2": "2 66925  53.1573  37.9393 0000823  83.8207  42.3080 15.91464790  2396"}}, "geometry": {"type": "Point", "coordinates": [-156.35097855313117, 13.961012998915573]}}, {"type": "Feature", "properties": {"norad_id": 66926, "name": "STARLINK-35942", "group": "last-30-days", "lat": 10.676901612303892, "lon": -153.74356403885608, "alt_km": 302.0979972392888, "timestamp": "2025-12-15T22:44:27.662785+00:00", "meta": {"OBJECT_NAME": "STARLINK-35942", "OBJECT_ID": "2025-286B", "EPOCH": "2025-12-15T06:00:04.999968", "MEAN_MOTION": 15.91607475, "ECCENTRICITY": 7.961e-05, "INCLINATION": 53.1571, "RA_OF_ASC_NODE": 37.931, "ARG_OF_PERICENTER": 91.6678, "MEAN_ANOMALY": 38.3525, "EPHEMERIS_TYPE": 0, "CLASSIFICATION_TYPE": "U", "NORAD_CAT_ID": 66926, "ELEMENT_SET_NO": 999, "REV_AT_EPOCH": 239, "BSTAR": -0.0040796196, "MEAN_MOTION_DOT": -0.01355073, "MEAN_MOTION_DDOT": 0.00052951419}, "tle": {"line1": "1 66926U 25286B   25349.25005787 -.01355073  52951-3 -40796-2 0  9998", "line2": "2 66926  53.1571  37.9310 0000796  91.6678  38.3525 15.91607475  2390"}}, "geometry": {"type": "Point", "coordinates": [-153.74356403885608, 10.676901612303892]}}, {"type": "Feature", "properties": {"norad_id": 66927, "name": "STARLINK-35943", "group": "last-30-days", "lat": 9.223944131409963, "lon": -152.61415400555234, "alt_km": 302.3208539251227, "timestamp": "2025-12-15T22:44:27.662795+00:00", "meta": {"OBJECT_NAME": "STARLINK-35943", "OBJECT_ID": "2025-286C", "EPOCH": "2025-12-15T06:00:04.999968", "MEAN_MOTION": 15.9166377, "ECCENTRICITY": 8.965e-05, "INCLINATION": 53.1572, "RA_OF_ASC_NODE": 37.9277, "ARG_OF_PERICENTER": 81.9838, "MEAN_ANOMALY": 49.7476, "EPHEMERIS_TYPE": 0, "CLASSIFICATION_TYPE": "U", "NORAD_CAT_ID": 66927, "ELEMENT_SET_NO": 999, "REV_AT_EPOCH": 239, "BSTAR": -0.0041096519, "MEAN_MOTION_DOT": -0.0136887, "MEAN_MOTION_DDOT": 0.00053967976}, "tle": {"line1": "1 66927U 25286C   25349.25005787 -.01368870  53968-3 -41097-2 0  9992", "line2": "2 66927  53.1572  37.9277 0000896  81.9838  49.7476 15.91663770  2396"}}, "geometry": {"type": "Point", "coordinates": [-152.61415400555234, 9.223944131409963]}}]}